     2.100          NAVIGATION                              RINEX VERSION / TYPE
fic2rin                                 09/28/2016 00:33:35 PGM / RUN BY / DATE
                                                            END OF HEADER
19 16  9 27 10  0  0.0 -.522519927472D-03  .454747350886D-12  .000000000000D+00
     .720000000000D+02  .232500000000D+02  .459483425043D-08 -.201480957739D+01
     .122375786304D-05  .104860182619D-01  .285543501377D-05  .515363104248D+04
     .208800000000D+06  .182539224625D-06  .910072084155D+00  .279396772385D-07
     .974604785824D+00  .329562500000D+03  .869127539428D+00 -.823891461244D-08
     .237867050975D-09  .100000000000D+01  .191600000000D+04  .000000000000D+00
     .240000000000D+01  .000000000000D+00 -.149011611938D-07  .720000000000D+02
     .201606000000D+06  .400000000000D+01
20 16  9 27 10  0  0.0  .437823124230D-03  .204636307899D-11  .000000000000D+00
     .610000000000D+02  .156250000000D+00  .495092051143D-08  .276495986196D+00
     .182539224625D-06  .467507936992D-02  .116452574730D-04  .515359162903D+04
     .208800000000D+06 -.210478901863D-06  .282195775140D+01 -.651925802231D-07
     .926896225771D+00  .141062500000D+03  .144477700709D+01 -.820498462769D-08
     .135362781260D-09  .100000000000D+01  .191600000000D+04  .000000000000D+00
     .240000000000D+01  .000000000000D+00 -.838190317154D-08  .610000000000D+02
     .201606000000D+06  .400000000000D+01
21 16  9 27 10  0  0.0 -.532348640263D-03 -.341060513165D-12  .000000000000D+00
     .660000000000D+02 -.106656250000D+03  .490377569051D-08 -.259428282325D+01
    -.547058880329D-05  .233230954036D-01  .655464828014D-05  .515382476044D+04
     .208800000000D+06  .299885869026D-06  .183207860134D+01  .782310962677D-07
     .937173207723D+00  .233312500000D+03 -.175527053505D+01 -.802390565645D-08
    -.301441127661D-09  .100000000000D+01  .191600000000D+04  .000000000000D+00
     .240000000000D+01  .000000000000D+00 -.977888703346D-08  .660000000000D+02
     .201606000000D+06  .400000000000D+01
22 16  9 27 10  0  0.0  .234165694565D-03 -.102318153949D-10  .000000000000D+00
     .310000000000D+02 -.912500000000D+01  .506521098637D-08  .642049467229D+00
    -.318512320518D-06  .741675682366D-02  .119749456644D-04  .515372377014D+04
     .208800000000D+06 -.124797224998D-06  .287395816053D+01 -.391155481339D-07
     .923559786544D+00  .132718750000D+03 -.186199596655D+01 -.833641867387D-08
     .138220043134D-09  .100000000000D+01  .191600000000D+04  .000000000000D+00
     .240000000000D+01  .000000000000D+00 -.176951289177D-07  .310000000000D+02
     .201606000000D+06  .400000000000D+01
23 16  9 27 10  0  0.0 -.191372353584D-03 -.136424205266D-11  .000000000000D+00
     .660000000000D+02  .402500000000D+02  .522593196676D-08 -.122761124648D+00
     .224635004997D-05  .111454922007D-01  .520423054695D-05  .515360321808D+04
     .208800000000D+06  .912696123123D-07 -.233024262922D+01  .160187482834D-06
     .945395089672D+00  .271312500000D+03 -.252807588499D+01 -.866393231613D-08
     .337156901081D-09  .100000000000D+01  .191600000000D+04  .000000000000D+00
     .240000000000D+01  .000000000000D+00 -.200234353542D-07  .660000000000D+02
     .201606000000D+06  .400000000000D+01
24 16  9 27 10  0  0.0 -.237720087171D-04 -.568434188608D-12  .000000000000D+00
     .670000000000D+02 -.427812500000D+02  .498485049617D-08 -.666641262044D+00
    -.219047069550D-05  .469590164721D-02  .746734440327D-05  .515372431183D+04
     .208800000000D+06  .108033418655D-06 -.130470268878D+01  .558793544769D-07
     .947771548889D+00  .228718750000D+03  .395782986156D+00 -.833749014707D-08
    -.371086885830D-09  .100000000000D+01  .191600000000D+04  .000000000000D+00
     .240000000000D+01  .000000000000D+00  .232830643654D-08  .670000000000D+02
     .201606000000D+06  .400000000000D+01
25 16  9 27 10  0  0.0 -.253229867667D-03 -.693489710102D-11  .000000000000D+00
     .260000000000D+02  .647812500000D+02  .398123726308D-08 -.277715579013D+01
     .324100255966D-05  .558781193104D-02  .108219683170D-04  .515369831085D+04
     .208800000000D+06  .391155481339D-07 -.229146729064D+00 -.100582838058D-06
     .978538376508D+00  .179375000000D+03  .782231560181D+00 -.768496296670D-08
     .180007498035D-09  .100000000000D+01  .191600000000D+04  .000000000000D+00
     .240000000000D+01  .000000000000D+00  .558793544769D-08  .260000000000D+02
     .201606000000D+06  .400000000000D+01
26 16  9 27 10  0  0.0 -.477067194879D-03 -.670752342558D-11  .000000000000D+00
     .220000000000D+02  .688750000000D+02  .447661504041D-08  .307237136531D+01
     .366009771824D-05  .100199808367D-02  .111162662506D-04  .515358897400D+04
     .208800000000D+06 -.540167093277D-07 -.240277010651D+00  .167638063431D-07
     .960433998708D+00  .164093750000D+03 -.120992870696D+00 -.796640326124D-08
     .192150860997D-09  .100000000000D+01  .191600000000D+04  .000000000000D+00
     .240000000000D+01  .000000000000D+00  .698491930962D-08  .220000000000D+02
     .201606000000D+06  .400000000000D+01
27 16  9 27 10  0  0.0  .144509598613D-03  .488853402203D-11  .000000000000D+00
     .500000000000D+01  .374375000000D+02  .475591238856D-08  .116546371863D+01
     .208802521229D-05  .382531213108D-02  .331737101078D-05  .515364828491D+04
     .208800000000D+06  .391155481339D-07  .811001849871D+00  .372529029846D-07
     .972459491070D+00  .319218750000D+03  .342408434663D+00 -.845213777975D-08
     .116076263614D-09  .100000000000D+01  .191600000000D+04  .000000000000D+00
     .240000000000D+01  .000000000000D+00  .186264514923D-08  .500000000000D+01
     .201606000000D+06  .400000000000D+01
28 16  9 27 10  0  0.0  .555066391826D-03  .272848410532D-11  .000000000000D+00
     .105000000000D+03  .488125000000D+02  .372908390274D-08  .201338551295D+01
     .242330133915D-05  .199040671578D-01  .110026448965D-04  .515363419151D+04
     .208800000000D+06  .262632966042D-06 -.153203908598D+00 -.322237610817D-06
     .989668283588D+00  .178593750000D+03 -.161110277153D+01 -.736494963686D-08
     .167506977338D-09  .100000000000D+01  .191600000000D+04  .000000000000D+00
     .340000000000D+01  .000000000000D+00 -.107102096081D-07  .105000000000D+03
     .201606000000D+06  .400000000000D+01
29 16  9 27 10  0  0.0  .649641733617D-03 -.125055521494D-11  .000000000000D+00
     .770000000000D+02  .220625000000D+02  .449518724259D-08 -.313026753911D+01
     .100396573544D-05  .540486304089D-03  .328198075294D-05  .515373978233D+04
     .208800000000D+06 -.465661287308D-07  .871469955079D+00 -.335276126862D-07
     .978497555242D+00  .323437500000D+03  .104759683616D+00 -.822855703814D-08
     .685742849656D-10  .100000000000D+01  .191600000000D+04  .000000000000D+00
     .240000000000D+01  .000000000000D+00 -.102445483208D-07  .770000000000D+02
     .201606000000D+06  .400000000000D+01
30 16  9 27 10  0  0.0  .152003485709D-03  .147792889038D-11  .000000000000D+00
     .410000000000D+02 -.476875000000D+02  .484627329531D-08 -.160914978906D+01
    -.273063778877D-05  .241269706748D-02  .812485814095D-05  .515376652718D+04
     .208800000000D+06 -.335276126862D-07 -.121299059596D+01 -.353902578354D-07
     .950524318913D+00  .218531250000D+03 -.313275240348D+01 -.822462830307D-08
    -.341085636157D-09  .100000000000D+01  .191600000000D+04  .000000000000D+00
     .240000000000D+01  .000000000000D+00  .372529029846D-08  .410000000000D+02
     .201606000000D+06  .400000000000D+01
31 16  9 27 10  0  0.0  .245695002377D-03 -.216004991671D-11  .000000000000D+00
     .560000000000D+02 -.325000000000D+02  .445875715370D-08 -.179783453740D+01
    -.186264514923D-05  .832718203310D-02  .893510878086D-05  .515355923653D+04
     .208800000000D+06 -.104308128357D-06 -.124549888126D+01 -.149011611938D-06
     .969527595505D+00  .216375000000D+03 -.378035775416D+00 -.802890586473D-08
    -.352514683652D-09  .100000000000D+01  .191600000000D+04  .000000000000D+00
     .240000000000D+01  .000000000000D+00 -.135041773319D-07  .560000000000D+02
     .201606000000D+06  .400000000000D+01
32 16  9 27 10  0  0.0 -.131294131279D-03 -.148929757415D-10  .000000000000D+00
     .640000000000D+02  .341875000000D+02  .485091634585D-08  .158733489949D+01
     .177882611752D-05  .646092696115D-03  .499188899994D-05  .515364183426D+04
     .208800000000D+06 -.242143869400D-07 -.233232467032D+01 -.204890966415D-07
     .959046559887D+00  .277531250000D+03 -.234753003310D+01 -.831177479021D-08
     .273582824394D-09  .100000000000D+01  .191600000000D+04  .000000000000D+00
     .240000000000D+01  .000000000000D+00  .931322574615D-09  .640000000000D+02
     .201606000000D+06  .400000000000D+01
 1 16  9 27 12  0  0.0  .353693030775D-04  .125055521494D-11  .000000000000D+00
     .210000000000D+02 -.100656250000D+03  .464733643736D-08  .757197605691D-01
    -.521726906300D-05  .592108326964D-02  .686012208462D-05  .515370418549D+04
     .216000000000D+06  .540167093277D-07  .186911221452D+01  .651925802231D-07
     .965099744781D+00  .245281250000D+03  .554689463534D+00 -.830856037060D-08
    -.491806199988D-09  .100000000000D+01  .191600000000D+04  .000000000000D+00
     .240000000000D+01  .000000000000D+00  .512227416039D-08  .210000000000D+02
     .208806000000D+06  .400000000000D+01
 2 16  9 27 12  0  0.0  .547475181520D-03 -.500222085975D-11  .000000000000D+00
     .220000000000D+02 -.853750000000D+02  .521343144606D-08  .534287943009D+00
    -.436045229435D-05  .159636074677D-01  .591762363911D-05  .515364144325D+04
     .216000000000D+06 -.219792127609D-06  .182092513542D+01  .856816768646D-07
     .943898824375D+00  .261656250000D+03 -.208193240185D+01 -.873929259804D-08
    -.515021452711D-09  .100000000000D+01  .191600000000D+04  .000000000000D+00
     .240000000000D+01  .000000000000D+00 -.204890966415D-07  .220000000000D+02
     .208806000000D+06  .400000000000D+01
